sat16194
1 16194U 85100B   20046.76659456 -.00000194  00000-0 -62308-3 0  9993
2 16194  82.5903  57.3609 0017639  81.6238  92.0522 13.06764595636274
